start=new Date('2021-11-07T00:00:00.000Z').valueOf();
sats=[{"MEAN_MOTION_DDOT":"0.0000000000000","OBJECT_ID":"2021-038AP","MEAN_ANOMALY":"291.3194","DECAY_DATE":null,"REF_FRAME":"TEME","LAUNCH_DATE":"2021-05-04","PERIOD":"95.594","ARG_OF_PERICENTER":"68.7973","CLASSIFICATION_TYPE":"U","APOAPSIS":"548.467","TLE_LINE1":"1 48390U 21038AP  21310.54581599 -.00015099  00000-0 -99770-3 0  9992","ECCENTRICITY":"0.00016710","EPOCH":"2021-11-06T13:05:58.501536","TIME_SYSTEM":"UTC","SITE":"AFETR","RA_OF_ASC_NODE":"253.1101","EPHEMERIS_TYPE":"0","CENTER_NAME":"EARTH","MEAN_MOTION_DOT":"-0.00015099","TLE_LINE2":"2 48390  53.0551 253.1101 0001671  68.7973 291.3194 15.06368716 29129","REV_AT_EPOCH":"2912","COUNTRY_CODE":"US","FILE":"3205908","PERIAPSIS":"546.152","MEAN_ELEMENT_THEORY":"SGP4","OBJECT_NAME":"STARLINK-2586","ELEMENT_SET_NO":"999","SEMIMAJOR_AXIS":"6925.444","BSTAR":"-0.00099770000000","RCS_SIZE":"LARGE","NORAD_CAT_ID":"48390","GP_ID":"189103847","MEAN_MOTION":"15.06368716","INCLINATION":"53.0551","OBJECT_TYPE":"PAYLOAD"},{"CLASSIFICATION_TYPE":"U","ARG_OF_PERICENTER":"86.2239","TLE_LINE1":"1 48391U 21038AQ  21310.21040525 -.00000235  00000-0  31088-5 0  9991","ECCENTRICITY":"0.00013640","APOAPSIS":"548.170","SITE":"AFETR","TIME_SYSTEM":"UTC","EPOCH":"2021-11-06T05:02:59.013600","MEAN_MOTION_DDOT":"0.0000000000000","OBJECT_ID":"2021-038AQ","MEAN_ANOMALY":"273.8906","DECAY_DATE":null,"LAUNCH_DATE":"2021-05-04","REF_FRAME":"TEME","PERIOD":"95.592","GP_ID":"189096077","NORAD_CAT_ID":"48391","RCS_SIZE":"LARGE","MEAN_MOTION":"15.06396256","OBJECT_TYPE":"PAYLOAD","INCLINATION":"53.0557","CENTER_NAME":"EARTH","TLE_LINE2":"2 48391  53.0557 254.6162 0001364  86.2239 273.8906 15.06396256 29708","MEAN_MOTION_DOT":"-0.00000235","EPHEMERIS_TYPE":"0","RA_OF_ASC_NODE":"254.6162","PERIAPSIS":"546.280","MEAN_ELEMENT_THEORY":"SGP4","COUNTRY_CODE":"US","REV_AT_EPOCH":"2970","FILE":"3205696","OBJECT_NAME":"STARLINK-2607","ELEMENT_SET_NO":"999","SEMIMAJOR_AXIS":"6925.360","BSTAR":"0.00000310880000"},{"OBJECT_ID":"2021-038AR","MEAN_MOTION_DDOT":"0.0000000000000","DECAY_DATE":null,"REF_FRAME":"TEME","LAUNCH_DATE":"2021-05-04","PERIOD":"95.593","MEAN_ANOMALY":"281.2953","ARG_OF_PERICENTER":"78.8206","CLASSIFICATION_TYPE":"U","SITE":"AFETR","EPOCH":"2021-11-06T06:33:12.371904","TIME_SYSTEM":"UTC","ECCENTRICITY":"0.00015120","TLE_LINE1":"1 48392U 21038AR  21310.27305986 -.00002950  00000-0 -17927-3 0  9994","APOAPSIS":"548.281","MEAN_ELEMENT_THEORY":"SGP4","PERIAPSIS":"546.187","FILE":"3205696","COUNTRY_CODE":"US","REV_AT_EPOCH":"2971","MEAN_MOTION_DOT":"-0.00002950","TLE_LINE2":"2 48392  53.0547 254.3316 0001512  78.8206 281.2953 15.06393385 29718","CENTER_NAME":"EARTH","EPHEMERIS_TYPE":"0","RA_OF_ASC_NODE":"254.3316","BSTAR":"-0.00017927000000","SEMIMAJOR_AXIS":"6925.369","ELEMENT_SET_NO":"999","OBJECT_NAME":"STARLINK-2605","GP_ID":"189096828","RCS_SIZE":"LARGE","NORAD_CAT_ID":"48392","OBJECT_TYPE":"PAYLOAD","INCLINATION":"53.0547","MEAN_MOTION":"15.06393385"},{"SEMIMAJOR_AXIS":"6925.476","ELEMENT_SET_NO":"999","OBJECT_NAME":"STARLINK-2602","BSTAR":"-0.00144070000000","MEAN_MOTION_DOT":"-0.00021652","TLE_LINE2":"2 48393  53.0558 253.1611 0001519  85.8713 274.2450 15.06358509 29122","CENTER_NAME":"EARTH","EPHEMERIS_TYPE":"0","RA_OF_ASC_NODE":"253.1611","MEAN_ELEMENT_THEORY":"SGP4","PERIAPSIS":"546.289","FILE":"3205895","COUNTRY_CODE":"US","REV_AT_EPOCH":"2912","MEAN_MOTION":"15.06358509","OBJECT_TYPE":"PAYLOAD","INCLINATION":"53.0558","GP_ID":"189103899","NORAD_CAT_ID":"48393","RCS_SIZE":"LARGE","PERIOD":"95.595","DECAY_DATE":null,"LAUNCH_DATE":"2021-05-04","REF_FRAME":"TEME","MEAN_ANOMALY":"274.2450","MEAN_MOTION_DDOT":"0.0000000000000","OBJECT_ID":"2021-038AS","ECCENTRICITY":"0.00015190","TLE_LINE1":"1 48393U 21038AS  21310.53475863 -.00021652  00000-0 -14407-2 0  9995","APOAPSIS":"548.393","SITE":"AFETR","EPOCH":"2021-11-06T12:50:03.145632","TIME_SYSTEM":"UTC","CLASSIFICATION_TYPE":"U","ARG_OF_PERICENTER":"85.8713"},{"TLE_LINE2":"2 48394  53.0546 254.3624 0001260  84.7217 275.3915 15.06400884 29714","MEAN_MOTION_DOT":"-0.00006370","CENTER_NAME":"EARTH","EPHEMERIS_TYPE":"0","RA_OF_ASC_NODE":"254.3624","MEAN_ELEMENT_THEORY":"SGP4","PERIAPSIS":"546.338","FILE":"3205696","COUNTRY_CODE":"US","REV_AT_EPOCH":"2971","ELEMENT_SET_NO":"999","SEMIMAJOR_AXIS":"6925.346","OBJECT_NAME":"STARLINK-2573","BSTAR":"-0.00040909000000","GP_ID":"189098178","NORAD_CAT_ID":"48394","RCS_SIZE":"LARGE","MEAN_MOTION":"15.06400884","OBJECT_TYPE":"PAYLOAD","INCLINATION":"53.0546","MEAN_MOTION_DDOT":"0.0000000000000","OBJECT_ID":"2021-038AT","REF_FRAME":"TEME","DECAY_DATE":null,"LAUNCH_DATE":"2021-05-04","PERIOD":"95.592","MEAN_ANOMALY":"275.3915","ARG_OF_PERICENTER":"84.7217","CLASSIFICATION_TYPE":"U","ECCENTRICITY":"0.00012600","TLE_LINE1":"1 48394U 21038AT  21310.26569758 -.00006370  00000-0 -40909-3 0  9990","APOAPSIS":"548.083","SITE":"AFETR","TIME_SYSTEM":"UTC","EPOCH":"2021-11-06T06:22:36.270912"},{"OBJECT_NAME":"STARLINK-2574","ELEMENT_SET_NO":"999","SEMIMAJOR_AXIS":"6925.371","BSTAR":"-0.00008051100000","CENTER_NAME":"EARTH","MEAN_MOTION_DOT":"-0.00001480","TLE_LINE2":"2 48395  53.0552 254.4343 0001304  71.3961 288.7170 15.06392748 29718","EPHEMERIS_TYPE":"0","RA_OF_ASC_NODE":"254.4343","PERIAPSIS":"546.333","MEAN_ELEMENT_THEORY":"SGP4","REV_AT_EPOCH":"2971","COUNTRY_CODE":"US","FILE":"3205696","MEAN_MOTION":"15.06392748","OBJECT_TYPE":"PAYLOAD","INCLINATION":"53.0552","GP_ID":"189097831","RCS_SIZE":"LARGE","NORAD_CAT_ID":"48395","MEAN_ANOMALY":"288.7170","DECAY_DATE":null,"REF_FRAME":"TEME","LAUNCH_DATE":"2021-05-04","PERIOD":"95.593","MEAN_MOTION_DDOT":"0.0000000000000","OBJECT_ID":"2021-038AU","TLE_LINE1":"1 48395U 21038AU  21310.24999692 -.00001480  00000-0 -80511-4 0  9994","ECCENTRICITY":"0.00013040","APOAPSIS":"548.139","SITE":"AFETR","TIME_SYSTEM":"UTC","EPOCH":"2021-11-06T05:59:59.733888","ARG_OF_PERICENTER":"71.3961","CLASSIFICATION_TYPE":"U"},{"ELEMENT_SET_NO":"999","SEMIMAJOR_AXIS":"6925.347","OBJECT_NAME":"STARLINK-2575","BSTAR":"0.00020507000000","EPHEMERIS_TYPE":"0","RA_OF_ASC_NODE":"254.0752","MEAN_MOTION_DOT":"0.00002774","TLE_LINE2":"2 48396  53.0541 254.0752 0001312  72.9190 287.1943 15.06400470 29721","CENTER_NAME":"EARTH","FILE":"3206165","COUNTRY_CODE":"US","REV_AT_EPOCH":"2972","MEAN_ELEMENT_THEORY":"SGP4","PERIAPSIS":"546.304","MEAN_MOTION":"15.06400470","INCLINATION":"53.0541","OBJECT_TYPE":"PAYLOAD","RCS_SIZE":"LARGE","NORAD_CAT_ID":"48396","GP_ID":"189131482","DECAY_DATE":null,"REF_FRAME":"TEME","LAUNCH_DATE":"2021-05-04","PERIOD":"95.592","MEAN_ANOMALY":"287.1943","MEAN_MOTION_DDOT":"0.0000000000000","OBJECT_ID":"2021-038AV","APOAPSIS":"548.121","ECCENTRICITY":"0.00013120","TLE_LINE1":"1 48396U 21038AV  21310.32834726  .00002774  00000-0  20507-3 0  9993","TIME_SYSTEM":"UTC","EPOCH":"2021-11-06T07:52:49.203264","SITE":"AFETR","CLASSIFICATION_TYPE":"U","ARG_OF_PERICENTER":"72.9190"},{"INCLINATION":"53.0558","OBJECT_TYPE":"PAYLOAD","MEAN_MOTION":"15.06385081","RCS_SIZE":"LARGE","NORAD_CAT_ID":"48397","GP_ID":"189097077","BSTAR":"-0.00056816000000","SEMIMAJOR_AXIS":"6925.394","ELEMENT_SET_NO":"999","OBJECT_NAME":"STARLINK-2590","FILE":"3205696","COUNTRY_CODE":"US","REV_AT_EPOCH":"2971","MEAN_ELEMENT_THEORY":"SGP4","PERIAPSIS":"546.173","RA_OF_ASC_NODE":"254.4040","EPHEMERIS_TYPE":"0","TLE_LINE2":"2 48397  53.0558 254.4040 0001569  73.0565 287.0596 15.06385081 29718","MEAN_MOTION_DOT":"-0.00008731","CENTER_NAME":"EARTH","EPOCH":"2021-11-06T06:11:57.713568","TIME_SYSTEM":"UTC","SITE":"AFETR","APOAPSIS":"548.346","ECCENTRICITY":"0.00015690","TLE_LINE1":"1 48397U 21038AW  21310.25830687 -.00008731  00000-0 -56816-3 0  9991","ARG_OF_PERICENTER":"73.0565","CLASSIFICATION_TYPE":"U","DECAY_DATE":null,"LAUNCH_DATE":"2021-05-04","PERIOD":"95.593","REF_FRAME":"TEME","MEAN_ANOMALY":"287.0596","OBJECT_ID":"2021-038AW","MEAN_MOTION_DDOT":"0.0000000000000"},{"MEAN_MOTION_DDOT":"0.0000000000000","OBJECT_ID":"2021-038AX","MEAN_ANOMALY":"284.6548","LAUNCH_DATE":"2021-05-04","DECAY_DATE":null,"PERIOD":"95.592","REF_FRAME":"TEME","ARG_OF_PERICENTER":"75.4617","CLASSIFICATION_TYPE":"U","APOAPSIS":"548.325","TLE_LINE1":"1 48398U 21038AX  21310.32096906 -.00013825  00000-0 -91112-3 0  9996","ECCENTRICITY":"0.00015800","EPOCH":"2021-11-06T07:42:11.726784","TIME_SYSTEM":"UTC","SITE":"AFETR","EPHEMERIS_TYPE":"0","RA_OF_ASC_NODE":"254.1173","CENTER_NAME":"EARTH","TLE_LINE2":"2 48398  53.0548 254.1173 0001580  75.4617 284.6548 15.06394397 29720","MEAN_MOTION_DOT":"-0.00013825","COUNTRY_CODE":"US","REV_AT_EPOCH":"2972","FILE":"3206165","PERIAPSIS":"546.137","MEAN_ELEMENT_THEORY":"SGP4","OBJECT_NAME":"STARLINK-2588","ELEMENT_SET_NO":"999","SEMIMAJOR_AXIS":"6925.366","BSTAR":"-0.00091112000000","RCS_SIZE":"LARGE","NORAD_CAT_ID":"48398","GP_ID":"189131735","MEAN_MOTION":"15.06394397","INCLINATION":"53.0548","OBJECT_TYPE":"PAYLOAD"},{"OBJECT_TYPE":"PAYLOAD","INCLINATION":"53.0558","MEAN_MOTION":"15.06363064","GP_ID":"189105448","NORAD_CAT_ID":"48399","RCS_SIZE":"LARGE","BSTAR":"-0.00129830000000","OBJECT_NAME":"STARLINK-2587","ELEMENT_SET_NO":"999","SEMIMAJOR_AXIS":"6925.462","PERIAPSIS":"546.174","MEAN_ELEMENT_THEORY":"SGP4","COUNTRY_CODE":"US","REV_AT_EPOCH":"2913","FILE":"3205971","CENTER_NAME":"EARTH","TLE_LINE2":"2 48399  53.0558 252.9501 0001664  77.7485 282.3690 15.06363064 29139","MEAN_MOTION_DOT":"-0.00019548","RA_OF_ASC_NODE":"252.9501","EPHEMERIS_TYPE":"0","SITE":"AFETR","TIME_SYSTEM":"UTC","EPOCH":"2021-11-06T13:59:03.748992","TLE_LINE1":"1 48399U 21038AY  21310.58268228 -.00019548  00000-0 -12983-2 0  9999","ECCENTRICITY":"0.00016640","APOAPSIS":"548.479","ARG_OF_PERICENTER":"77.7485","CLASSIFICATION_TYPE":"U","MEAN_ANOMALY":"282.3690","DECAY_DATE":null,"LAUNCH_DATE":"2021-05-04","REF_FRAME":"TEME","PERIOD":"95.594","OBJECT_ID":"2021-038AY","MEAN_MOTION_DDOT":"0.0000000000000"}];
